CCSDS_OMM_VERS = 2.0
CREATION_DATE  = 
ORIGINATOR     = 

OBJECT_NAME    = TERRA
OBJECT_ID      = 1999-068A
CENTER_NAME    = EARTH
REF_FRAME      = TEME
TIME_SYSTEM    = UTC
MEAN_ELEMENT_THEORY = SGP/SGP4

EPOCH          = 2025-12-03T03:19:40.019232
MEAN_MOTION    = 14.60934154
ECCENTRICITY   = .0003395
INCLINATION    = 97.9762
RA_OF_ASC_NODE = 29.1747
ARG_OF_PERICENTER = 117.1510
MEAN_ANOMALY   = 268.4090

EPHEMERIS_TYPE = 0
CLASSIFICATION_TYPE = U
NORAD_CAT_ID   = 25994
ELEMENT_SET_NO = 999
REV_AT_EPOCH   = 38098
BSTAR          = .1522E-3
MEAN_MOTION_DOT = .701E-5
MEAN_MOTION_DDOT = 0

CCSDS_OMM_VERS = 2.0
CREATION_DATE  = 
ORIGINATOR     = 

OBJECT_NAME    = SL-16 R/B
OBJECT_ID      = 2000-006B
CENTER_NAME    = EARTH
REF_FRAME      = TEME
TIME_SYSTEM    = UTC
MEAN_ELEMENT_THEORY = SGP/SGP4

EPOCH          = 2025-12-03T03:34:23.906784
MEAN_MOTION    = 14.15807477
ECCENTRICITY   = .0017937
INCLINATION    = 71.0027
RA_OF_ASC_NODE = 300.8233
ARG_OF_PERICENTER = 322.0476
MEAN_ANOMALY   = 37.9381

EPHEMERIS_TYPE = 0
CLASSIFICATION_TYPE = U
NORAD_CAT_ID   = 26070
ELEMENT_SET_NO = 999
REV_AT_EPOCH   = 33489
BSTAR          = .18665E-3
MEAN_MOTION_DOT = .32E-5
MEAN_MOTION_DDOT = 0

CCSDS_OMM_VERS = 2.0
CREATION_DATE  = 
ORIGINATOR     = 

OBJECT_NAME    = TITAN 4B R/B
OBJECT_ID      = 2000-047B
CENTER_NAME    = EARTH
REF_FRAME      = TEME
TIME_SYSTEM    = UTC
MEAN_ELEMENT_THEORY = SGP/SGP4

EPOCH          = 2025-12-03T04:43:02.906688
MEAN_MOTION    = 15.08665544
ECCENTRICITY   = .0039688
INCLINATION    = 67.9896
RA_OF_ASC_NODE = 311.6550
ARG_OF_PERICENTER = 155.9238
MEAN_ANOMALY   = 204.3778

EPHEMERIS_TYPE = 0
CLASSIFICATION_TYPE = U
NORAD_CAT_ID   = 26474
ELEMENT_SET_NO = 999
REV_AT_EPOCH   = 37835
BSTAR          = .32075E-3
MEAN_MOTION_DOT = .4996E-4
MEAN_MOTION_DDOT = 0

CCSDS_OMM_VERS = 2.0
CREATION_DATE  = 
ORIGINATOR     = 

OBJECT_NAME    = ENVISAT
OBJECT_ID      = 2002-009A
CENTER_NAME    = EARTH
REF_FRAME      = TEME
TIME_SYSTEM    = UTC
MEAN_ELEMENT_THEORY = SGP/SGP4

EPOCH          = 2025-12-02T21:27:06.891264
MEAN_MOTION    = 14.38993223
ECCENTRICITY   = .0001168
INCLINATION    = 98.3584
RA_OF_ASC_NODE = 287.8847
ARG_OF_PERICENTER = 81.8775
MEAN_ANOMALY   = 344.9574

EPHEMERIS_TYPE = 0
CLASSIFICATION_TYPE = U
NORAD_CAT_ID   = 27386
ELEMENT_SET_NO = 999
REV_AT_EPOCH   = 24525
BSTAR          = .77015E-4
MEAN_MOTION_DOT = .195E-5
MEAN_MOTION_DDOT = 0

CCSDS_OMM_VERS = 2.0
CREATION_DATE  = 
ORIGINATOR     = 

OBJECT_NAME    = IDEFIX & ARIANE 42P R/B
OBJECT_ID      = 2002-021B
CENTER_NAME    = EARTH
REF_FRAME      = TEME
TIME_SYSTEM    = UTC
MEAN_ELEMENT_THEORY = SGP/SGP4

EPOCH          = 2025-12-03T01:45:58.927680
MEAN_MOTION    = 14.30938446
ECCENTRICITY   = .0012821
INCLINATION    = 98.5772
RA_OF_ASC_NODE = 271.8906
ARG_OF_PERICENTER = 109.7010
MEAN_ANOMALY   = 250.5557

EPHEMERIS_TYPE = 0
CLASSIFICATION_TYPE = U
NORAD_CAT_ID   = 27422
ELEMENT_SET_NO = 999
REV_AT_EPOCH   = 23020
BSTAR          = .18258E-3
MEAN_MOTION_DOT = .437E-5
MEAN_MOTION_DDOT = 0

CCSDS_OMM_VERS = 2.0
CREATION_DATE  = 
ORIGINATOR     = 

OBJECT_NAME    = AQUA
OBJECT_ID      = 2002-022A
CENTER_NAME    = EARTH
REF_FRAME      = TEME
TIME_SYSTEM    = UTC
MEAN_ELEMENT_THEORY = SGP/SGP4

EPOCH          = 2025-12-03T04:29:29.314176
MEAN_MOTION    = 14.61770701
ECCENTRICITY   = .0000746
INCLINATION    = 98.4024
RA_OF_ASC_NODE = 297.9119
ARG_OF_PERICENTER = 108.0837
MEAN_ANOMALY   = 17.2527

EPHEMERIS_TYPE = 0
CLASSIFICATION_TYPE = U
NORAD_CAT_ID   = 27424
ELEMENT_SET_NO = 999
REV_AT_EPOCH   = 25463
BSTAR          = .3102E-3
MEAN_MOTION_DOT = .1498E-4
MEAN_MOTION_DDOT = 0

CCSDS_OMM_VERS = 2.0
CREATION_DATE  = 
ORIGINATOR     = 

OBJECT_NAME    = CZ-4B R/B
OBJECT_ID      = 2002-024C
CENTER_NAME    = EARTH
REF_FRAME      = TEME
TIME_SYSTEM    = UTC
MEAN_ELEMENT_THEORY = SGP/SGP4

EPOCH          = 2025-12-03T04:02:28.864032
MEAN_MOTION    = 14.14524606
ECCENTRICITY   = .0049234
INCLINATION    = 98.9014
RA_OF_ASC_NODE = 25.9729
ARG_OF_PERICENTER = 297.6316
MEAN_ANOMALY   = 129.7768

EPHEMERIS_TYPE = 0
CLASSIFICATION_TYPE = U
NORAD_CAT_ID   = 27432
ELEMENT_SET_NO = 999
REV_AT_EPOCH   = 21559
BSTAR          = .72256E-4
MEAN_MOTION_DOT = .95E-6
MEAN_MOTION_DDOT = 0

CCSDS_OMM_VERS = 2.0
CREATION_DATE  = 
ORIGINATOR     = 

OBJECT_NAME    = MIDORI II (ADEOS-II)
OBJECT_ID      = 2002-056A
CENTER_NAME    = EARTH
REF_FRAME      = TEME
TIME_SYSTEM    = UTC
MEAN_ELEMENT_THEORY = SGP/SGP4

EPOCH          = 2025-12-03T02:58:50.093760
MEAN_MOTION    = 14.29194964
ECCENTRICITY   = .0000338
INCLINATION    = 98.7620
RA_OF_ASC_NODE = 290.0307
ARG_OF_PERICENTER = 9.8785
MEAN_ANOMALY   = 350.2403

EPHEMERIS_TYPE = 0
CLASSIFICATION_TYPE = U
NORAD_CAT_ID   = 27597
ELEMENT_SET_NO = 999
REV_AT_EPOCH   = 19650
BSTAR          = .17776E-3
MEAN_MOTION_DOT = .406E-5
MEAN_MOTION_DDOT = 0

CCSDS_OMM_VERS = 2.0
CREATION_DATE  = 
ORIGINATOR     = 

OBJECT_NAME    = H-2A R/B
OBJECT_ID      = 2002-056E
CENTER_NAME    = EARTH
REF_FRAME      = TEME
TIME_SYSTEM    = UTC
MEAN_ELEMENT_THEORY = SGP/SGP4

EPOCH          = 2025-12-03T04:18:13.375872
MEAN_MOTION    = 14.33663576
ECCENTRICITY   = .0071508
INCLINATION    = 98.3052
RA_OF_ASC_NODE = 296.3177
ARG_OF_PERICENTER = 89.1734
MEAN_ANOMALY   = 281.8282

EPHEMERIS_TYPE = 0
CLASSIFICATION_TYPE = U
NORAD_CAT_ID   = 27601
ELEMENT_SET_NO = 999
REV_AT_EPOCH   = 20028
BSTAR          = .17281E-3
MEAN_MOTION_DOT = .452E-5
MEAN_MOTION_DDOT = 0

CCSDS_OMM_VERS = 2.0
CREATION_DATE  = 
ORIGINATOR     = 

OBJECT_NAME    = CZ-4B R/B
OBJECT_ID      = 2003-049C
CENTER_NAME    = EARTH
REF_FRAME      = TEME
TIME_SYSTEM    = UTC
MEAN_ELEMENT_THEORY = SGP/SGP4

EPOCH          = 2025-12-02T23:12:57.242880
MEAN_MOTION    = 14.54894957
ECCENTRICITY   = .0048486
INCLINATION    = 98.6780
RA_OF_ASC_NODE = 323.1626
ARG_OF_PERICENTER = 165.5846
MEAN_ANOMALY   = 194.6746

EPHEMERIS_TYPE = 0
CLASSIFICATION_TYPE = U
NORAD_CAT_ID   = 28059
ELEMENT_SET_NO = 999
REV_AT_EPOCH   = 17253
BSTAR          = .14042E-3
MEAN_MOTION_DOT = .561E-5
MEAN_MOTION_DDOT = 0

CCSDS_OMM_VERS = 2.0
CREATION_DATE  = 
ORIGINATOR     = 

OBJECT_NAME    = CZ-2C R/B
OBJECT_ID      = 2004-012C
CENTER_NAME    = EARTH
REF_FRAME      = TEME
TIME_SYSTEM    = UTC
MEAN_ELEMENT_THEORY = SGP/SGP4

EPOCH          = 2025-12-03T03:38:07.332000
MEAN_MOTION    = 15.54533737
ECCENTRICITY   = .0017039
INCLINATION    = 97.7445
RA_OF_ASC_NODE = 28.9877
ARG_OF_PERICENTER = 307.8500
MEAN_ANOMALY   = 52.1210

EPHEMERIS_TYPE = 0
CLASSIFICATION_TYPE = U
NORAD_CAT_ID   = 28222
ELEMENT_SET_NO = 999
REV_AT_EPOCH   = 18923
BSTAR          = .66187E-3
MEAN_MOTION_DOT = .43965E-3
MEAN_MOTION_DDOT = 0

CCSDS_OMM_VERS = 2.0
CREATION_DATE  = 
ORIGINATOR     = 

OBJECT_NAME    = SL-16 R/B
OBJECT_ID      = 2004-021B
CENTER_NAME    = EARTH
REF_FRAME      = TEME
TIME_SYSTEM    = UTC
MEAN_ELEMENT_THEORY = SGP/SGP4

EPOCH          = 2025-12-03T00:06:28.824192
MEAN_MOTION    = 14.14582506
ECCENTRICITY   = .0005798
INCLINATION    = 71.0023
RA_OF_ASC_NODE = 75.3939
ARG_OF_PERICENTER = 213.2054
MEAN_ANOMALY   = 146.8705

EPHEMERIS_TYPE = 0
CLASSIFICATION_TYPE = U
NORAD_CAT_ID   = 28353
ELEMENT_SET_NO = 999
REV_AT_EPOCH   = 10916
BSTAR          = -.26936E-4
MEAN_MOTION_DOT = -.99E-6
MEAN_MOTION_DDOT = 0

CCSDS_OMM_VERS = 2.0
CREATION_DATE  = 
ORIGINATOR     = 

OBJECT_NAME    = CZ-4B R/B
OBJECT_ID      = 2004-035C
CENTER_NAME    = EARTH
REF_FRAME      = TEME
TIME_SYSTEM    = UTC
MEAN_ELEMENT_THEORY = SGP/SGP4

EPOCH          = 2025-12-03T01:27:57.585888
MEAN_MOTION    = 15.27127618
ECCENTRICITY   = .0032216
INCLINATION    = 97.3622
RA_OF_ASC_NODE = 7.5360
ARG_OF_PERICENTER = 313.4375
MEAN_ANOMALY   = 46.4184

EPHEMERIS_TYPE = 0
CLASSIFICATION_TYPE = U
NORAD_CAT_ID   = 28415
ELEMENT_SET_NO = 999
REV_AT_EPOCH   = 16515
BSTAR          = .39453E-3
MEAN_MOTION_DOT = .10584E-3
MEAN_MOTION_DDOT = 0

CCSDS_OMM_VERS = 2.0
CREATION_DATE  = 
ORIGINATOR     = 

OBJECT_NAME    = CZ-2C R/B
OBJECT_ID      = 2004-046B
CENTER_NAME    = EARTH
REF_FRAME      = TEME
TIME_SYSTEM    = UTC
MEAN_ELEMENT_THEORY = SGP/SGP4

EPOCH          = 2025-12-02T18:59:49.735104
MEAN_MOTION    = 14.26933533
ECCENTRICITY   = .0140696
INCLINATION    = 98.1981
RA_OF_ASC_NODE = 252.7882
ARG_OF_PERICENTER = 81.4914
MEAN_ANOMALY   = 280.2184

EPHEMERIS_TYPE = 0
CLASSIFICATION_TYPE = U
NORAD_CAT_ID   = 28480
ELEMENT_SET_NO = 999
REV_AT_EPOCH   = 9468
BSTAR          = .10785E-3
MEAN_MOTION_DOT = .251E-5
MEAN_MOTION_DDOT = 0

CCSDS_OMM_VERS = 2.0
CREATION_DATE  = 
ORIGINATOR     = 

OBJECT_NAME    = ARIANE 5 R/B
OBJECT_ID      = 2004-049H
CENTER_NAME    = EARTH
REF_FRAME      = TEME
TIME_SYSTEM    = UTC
MEAN_ELEMENT_THEORY = SGP/SGP4

EPOCH          = 2025-12-03T00:24:36.392832
MEAN_MOTION    = 14.84975384
ECCENTRICITY   = .0083598
INCLINATION    = 98.2521
RA_OF_ASC_NODE = 136.9501
ARG_OF_PERICENTER = 304.8983
MEAN_ANOMALY   = 54.4394

EPHEMERIS_TYPE = 0
CLASSIFICATION_TYPE = U
NORAD_CAT_ID   = 28499
ELEMENT_SET_NO = 999
REV_AT_EPOCH   = 13144
BSTAR          = .15884E-3
MEAN_MOTION_DOT = .1375E-4
MEAN_MOTION_DDOT = 0

